OBJECT_NAME,OBJECT_ID,EPOCH,MEAN_MOTION,ECCENTRICITY,INCLINATION,RA_OF_ASC_NODE,ARG_OF_PERICENTER,MEAN_ANOMALY,EPHEMERIS_TYPE,CLASSIFICATION_TYPE,NORAD_CAT_ID,ELEMENT_SET_NO,REV_AT_EPOCH,BSTAR,MEAN_MOTION_DOT,MEAN_MOTION_DDOT
SHIJIAN-29A (SJ-29A),2025-315A,2026-06-07T02:13:51.776832,1.00270045,.0003319,3.3712,95.3621,20.4371,246.4206,0,U,67302,999,151,0,-.53E-6,0
SHIJIAN-29B (SJ-29B),2025-315C,2026-06-07T00:05:17.170080,1.00268450,.000359,3.3699,95.3572,25.3257,209.3489,0,U,67403,999,158,0,-.53E-6,0
ELEKTRO-L 5,2026-028A,2026-06-07T01:53:57.213888,1.00271264,.00015782,0.2702,308.0486,182.4428,229.5304,0,U,67756,999,115,0,-.83E-6,0
JAM-E JAM 1,2026-028B,2026-06-07T05:01:56.638848,1.00271309,.00008344,0.2821,299.3046,300.0347,125.6616,0,U,67757,999,102,0,.17E-5,0
