SHIJIAN-29A (SJ-29A)    
1 67302U 25315A   26158.09296038 -.00000053  00000+0  00000+0 0  9990
2 67302   3.3712  95.3621 0003319  20.4371 246.4206  1.00270045  1515
SHIJIAN-29B (SJ-29B)    
1 67403U 25315C   26158.00367095 -.00000053  00000+0  00000+0 0  9995
2 67403   3.3699  95.3572 0003590  25.3257 209.3489  1.00268450  1589
ELEKTRO-L 5             
1 67756U 26028A   26158.07913441 -.00000083  00000+0  00000+0 0  9990
2 67756   0.2702 308.0486 0001578 182.4428 229.5304  1.00271264  1158
JAM-E JAM 1             
1 67757U 26028B   26158.20968332  .00000170  00000+0  00000+0 0  9991
2 67757   0.2821 299.3046 0000834 300.0347 125.6616  1.00271309  1025
